IRIDIUM 156             
1 43576U 18061H   26195.11785285  .00000054  00000+0  12143-4 0  9994
2 43576  86.3936  45.4637 0002083  91.9176 268.2258 14.34217529417235
IRIDIUM 164             
1 43577U 18061J   26195.09882669  .00000155  00000+0  48373-4 0  9992
2 43577  86.3938  45.5128 0002323  89.3076 270.8386 14.34218064417271
IRIDIUM 159             
1 43578U 18061K   26195.06711169  .00000058  00000+0  13715-4 0  9990
2 43578  86.3935  45.4623 0002141  85.0592 275.0848 14.34217420417233
IRIDIUM 180             
1 43922U 19002A   26194.92707182  .00000109  00000+0  31854-4 0  9994
2 43922  86.3990 342.4190 0002193  90.8984 269.2463 14.34218163392822
IRIDIUM 176             
1 43923U 19002B   26194.93837301  .00000404  00000+0  60192-4 0  9998
2 43923  86.6110 342.3539 0002338  89.9040 270.2445 14.72248159403183
IRIDIUM 168             
1 43924U 19002C   26194.92072738 -.00000068  00000+0 -31319-4 0  9990
2 43924  86.3989 342.4996 0002111  91.9223 268.2215 14.34216658392803
IRIDIUM 173             
1 43925U 19002D   26194.90804341 -.00000078  00000+0 -34846-4 0  9991
2 43925  86.3988 342.3932 0002021  91.8103 268.3324 14.34216653392782
IRIDIUM 169             
1 43926U 19002E   26195.03117659  .00000030  00000+0  32833-5 0  9997
2 43926  86.4220  13.9667 0001848 102.1820 257.9585 14.38613098394083
IRIDIUM 172             
1 43927U 19002F   26194.97146992  .00000031  00000+0  41581-5 0  9993
2 43927  86.3986 342.3740 0002170  90.1759 269.9685 14.34217540392809
IRIDIUM 175             
1 43928U 19002G   26195.16988566  .00000180  00000+0  47254-4 0  9994
2 43928  86.4512 279.2428 0005275 117.2257 242.9482 14.43626906402875
IRIDIUM 171             
1 43929U 19002H   26194.95244176  .00000032  00000+0  44636-5 0  9991
2 43929  86.3997 342.6911 0002213  94.8618 265.2830 14.34217535392792
IRIDIUM 170             
1 43930U 19002J   26194.94454345  .00000404  00000+0  60217-4 0  9998
2 43930  86.6109 342.3535 0002277  86.3158 273.8320 14.72248728403192
IRIDIUM 167             
1 43931U 19002K   26194.94609896  .00000042  00000+0  78010-5 0  9991
2 43931  86.3990 342.4073 0002267  98.8571 261.2881 14.34217700392792
IRIDIUM 181             
1 56726U 23068S   26195.07558473  .00000185  00000+0  48986-4 0  9999
2 56726  86.4476  45.5463 0002412  83.7838 276.3637 14.43311961166310
IRIDIUM 177             
1 56727U 23068T   26194.82480595  .00000563  00000+0  70959-4 0  9996
2 56727  86.1985 316.1443 0002140  94.4975 265.6490 14.80029271170300
IRIDIUM 174             
1 56728U 23068U   26194.93210762  .00000417  00000+0  62279-4 0  9990
2 56728  86.6118 342.5088 0002006  86.6388 273.5059 14.72257302169951
IRIDIUM 178             
1 56729U 23068V   26195.01663304  .00000183  00000+0  20788-4 0  9994
2 56729  86.6535  14.1459 0002317  90.6138 269.5349 14.80025847170339
IRIDIUM 179             
1 56730U 23068W   26195.01128279  .00000238  00000+0  27934-4 0  9994
2 56730  86.6766  23.2070 0002309  93.6642 266.4844 14.80033413170335
